STARLINK-36955          
1 68701U 26081C   26113.59022162  .04444907  00000+0  17935-1 0  9996
2 68701  53.1612 195.8911 0005139  30.4351 329.6970 15.82227964  1474
