{
  "norad_id": 68701,
  "name": "STARLINK-36955",
  "history": [
    {
      "epoch": "2026-04-23T14:09:55.147968Z",
      "apogee_km": 327.58581028429126,
      "perigee_km": 320.69720843237246,
      "latitude_deg": 2.1376785104780494e-05,
      "longitude_deg": 131.7760622858879,
      "height_km": 322.08833297635647,
      "semi_major_axis_km": 6702.278509358332,
      "eccentricity": 0.0005139,
      "inclination_deg": 53.1612,
      "raan_deg": 195.8911,
      "arg_perigee_deg": 30.4351,
      "mean_anomaly_deg": 329.697,
      "mean_motion_rev_day": 15.82227964
    }
  ]
}